{
    "links": {
        "self": "http://www.neowsapp.com/rest/v1/neo/3742879?api_key=iIulBulltgU6a56xZRHN4H3l9WmuAYTsLGpBGhQ2"
    },
    "id": "3742879",
    "neo_reference_id": "3742879",
    "name": "(2016 CJ137)",
    "designation": "2016 CJ137",
    "nasa_jpl_url": "http://ssd.jpl.nasa.gov/sbdb.cgi?sstr=3742879",
    "absolute_magnitude_h": 25.1,
    "estimated_diameter": {
        "kilometers": {
            "estimated_diameter_min": 0.0253837029,
            "estimated_diameter_max": 0.0567596853
        },
        "meters": {
            "estimated_diameter_min": 25.3837029364,
            "estimated_diameter_max": 56.7596852866
        },
        "miles": {
            "estimated_diameter_min": 0.0157726969,
            "estimated_diameter_max": 0.0352688224
        },
        "feet": {
            "estimated_diameter_min": 83.279867942,
            "estimated_diameter_max": 186.2194458756
        }
    },
    "is_potentially_hazardous_asteroid": false,
    "close_approach_data": [
        {
            "close_approach_date": "2016-01-26",
            "close_approach_date_full": "2016-Jan-26 20:55",
            "epoch_date_close_approach": 1453841700000,
            "relative_velocity": {
                "kilometers_per_second": "8.1095234072",
                "kilometers_per_hour": "29194.2842658678",
                "miles_per_hour": "18140.1929095332"
            },
            "miss_distance": {
                "astronomical": "0.073137474",
                "lunar": "28.450477386",
                "kilometers": "10941210.32758038",
                "miles": "6798552.844474044"
            },
            "orbiting_body": "Earth"
        }
    ],
    "orbital_data": {
        "orbit_id": "6",
        "orbit_determination_date": "2017-04-06 08:28:27",
        "first_observation_date": "2016-02-06",
        "last_observation_date": "2016-02-27",
        "data_arc_in_days": 21,
        "observations_used": 22,
        "orbit_uncertainty": "8",
        "minimum_orbit_intersection": ".0728368",
        "jupiter_tisserand_invariant": "3.638",
        "epoch_osculation": "2457427.5",
        "eccentricity": ".4977244493197593",
        "semi_major_axis": "2.026825857948262",
        "inclination": "8.524713650266477",
        "ascending_node_longitude": "143.3739525900889",
        "orbital_period": "1053.957458015977",
        "perihelion_distance": "1.018025073933915",
        "perihelion_argument": "321.0887583098787",
        "aphelion_distance": "3.03562664196261",
        "perihelion_time": "2457396.093889917232",
        "mean_anomaly": "10.72737760315282",
        "mean_motion": ".3415697638097102",
        "equinox": "J2000",
        "orbit_class": {
            "orbit_class_type": "AMO",
            "orbit_class_description": "Near-Earth asteroid orbits similar to that of 1221 Amor",
            "orbit_class_range": "1.017 AU < q (perihelion) < 1.3 AU"
        }
    },
    "is_sentry_object": false
}